{
  "type": "FeatureCollection",
  "features": [
    {
      "type": "Feature",
      "properties": {
        "norad_id": 33913,
        "name": "COSMOS 2251 DEB",
        "group": "cosmos-2251-debris",
        "lat": 42.413011985231066,
        "lon": -169.56124361565662,
        "alt_km": 747.5211984042153,
        "timestamp": "2025-12-17T04:57:44.753942+00:00",
        "meta_object_name": "COSMOS 2251 DEB",
        "meta_object_id": "1993-036DS",
        "meta_epoch": "2025-12-16T18:53:11.445792",
        "meta_mean_motion": 14.48502998,
        "meta_eccentricity": 0.00481593,
        "meta_inclination": 74.0325,
        "meta_ra_of_asc_node": 176.0622,
        "meta_arg_of_pericenter": 277.8729,
        "meta_mean_anomaly": 97.9587,
        "meta_ephemeris_type": 0,
        "meta_classification_type": "U",
        "meta_norad_cat_id": 33913,
        "meta_element_set_no": 999,
        "meta_rev_at_epoch": 88516,
        "meta_bstar": 0.00043490616,
        "meta_mean_motion_dot": 1.628e-05,
        "meta_mean_motion_ddot": 0,
        "tle_line1": "1 33913U 93036DS  25350.78693803  .00001628  00000+0  43491-3 0  9999",
        "tle_line2": "2 33913  74.0325 176.0622 0048159 277.8729  97.9587 14.48502998885168"
      },
      "geometry": {
        "type": "Point",
        "coordinates": [
          -169.56124361565662,
          42.413011985231066
        ]
      }
    },
    {
      "type": "Feature",
      "properties": {
        "norad_id": 33914,
        "name": "COSMOS 2251 DEB",
        "group": "cosmos-2251-debris",
        "lat": -42.38411194099921,
        "lon": -157.1802239437774,
        "alt_km": 1085.9090345147642,
        "timestamp": "2025-12-17T04:57:44.753952+00:00",
        "meta_object_name": "COSMOS 2251 DEB",
        "meta_object_id": "1993-036DT",
        "meta_epoch": "2025-12-16T19:59:24.364896",
        "meta_mean_motion": 13.71987409,
        "meta_eccentricity": 0.03009532,
        "meta_inclination": 74.0913,
        "meta_ra_of_asc_node": 8.3493,
        "meta_arg_of_pericenter": 110.3921,
        "meta_mean_anomaly": 65.0808,
        "meta_ephemeris_type": 0,
        "meta_classification_type": "U",
        "meta_norad_cat_id": 33914,
        "meta_element_set_no": 999,
        "meta_rev_at_epoch": 84137,
        "meta_bstar": 0.00025310413,
        "meta_mean_motion_dot": 2.98e-06,
        "meta_mean_motion_ddot": 0,
        "tle_line1": "1 33914U 93036DT  25350.83292089  .00000298  00000+0  25310-3 0  9999",
        "tle_line2": "2 33914  74.0913   8.3493 0300953 110.3921  65.0808 13.71987409841379"
      },
      "geometry": {
        "type": "Point",
        "coordinates": [
          -157.1802239437774,
          -42.38411194099921
        ]
      }
    },
    {
      "type": "Feature",
      "properties": {
        "norad_id": 33915,
        "name": "COSMOS 2251 DEB",
        "group": "cosmos-2251-debris",
        "lat": -72.58768475807972,
        "lon": -39.9021162805945,
        "alt_km": 851.5868529251375,
        "timestamp": "2025-12-17T04:57:44.753962+00:00",
        "meta_object_name": "COSMOS 2251 DEB",
        "meta_object_id": "1993-036DU",
        "meta_epoch": "2025-12-16T13:19:28.648416",
        "meta_mean_motion": 14.3509212,
        "meta_eccentricity": 0.01042453,
        "meta_inclination": 74.0435,
        "meta_ra_of_asc_node": 27.1148,
        "meta_arg_of_pericenter": 118.6504,
        "meta_mean_anomaly": 33.0865,
        "meta_ephemeris_type": 0,
        "meta_classification_type": "U",
        "meta_norad_cat_id": 33915,
        "meta_element_set_no": 999,
        "meta_rev_at_epoch": 87812,
        "meta_bstar": 0.00033122672,
        "meta_mean_motion_dot": 9.79e-06,
        "meta_mean_motion_ddot": 0,
        "tle_line1": "1 33915U 93036DU  25350.55519269  .00000979  00000+0  33123-3 0  9998",
        "tle_line2": "2 33915  74.0435  27.1148 0104245 118.6504  33.0865 14.35092120878128"
      },
      "geometry": {
        "type": "Point",
        "coordinates": [
          -39.9021162805945,
          -72.58768475807972
        ]
      }
    },
    {
      "type": "Feature",
      "properties": {
        "norad_id": 33916,
        "name": "COSMOS 2251 DEB",
        "group": "cosmos-2251-debris",
        "lat": 64.79953514427035,
        "lon": 70.66652830602565,
        "alt_km": 1161.0461984530275,
        "timestamp": "2025-12-17T04:57:44.753971+00:00",
        "meta_object_name": "COSMOS 2251 DEB",
        "meta_object_id": "1993-036DV",
        "meta_epoch": "2025-12-16T13:23:26.365920",
        "meta_mean_motion": 13.68618644,
        "meta_eccentricity": 0.03251884,
        "meta_inclination": 74.0525,
        "meta_ra_of_asc_node": 34.3149,
        "meta_arg_of_pericenter": 205.6459,
        "meta_mean_anomaly": 271.7774,
        "meta_ephemeris_type": 0,
        "meta_classification_type": "U",
        "meta_norad_cat_id": 33916,
        "meta_element_set_no": 999,
        "meta_rev_at_epoch": 83943,
        "meta_bstar": 0.00038449118,
        "meta_mean_motion_dot": 4.55e-06,
        "meta_mean_motion_ddot": 0,
        "tle_line1": "1 33916U 93036DV  25350.55794405  .00000455  00000+0  38449-3 0  9991",
        "tle_line2": "2 33916  74.0525  34.3149 0325188 205.6459 271.7774 13.68618644839438"
      },
      "geometry": {
        "type": "Point",
        "coordinates": [
          70.66652830602565,
          64.79953514427035
        ]
      }
    },
    {
      "type": "Feature",
      "properties": {
        "norad_id": 33917,
        "name": "COSMOS 2251 DEB",
        "group": "cosmos-2251-debris",
        "lat": 21.269124142136743,
        "lon": -71.29790547340542,
        "alt_km": 863.5575048611872,
        "timestamp": "2025-12-17T04:57:44.753981+00:00",
        "meta_object_name": "COSMOS 2251 DEB",
        "meta_object_id": "1993-036DW",
        "meta_epoch": "2025-12-16T17:38:54.720384",
        "meta_mean_motion": 13.69367338,
        "meta_eccentricity": 0.03313144,
        "meta_inclination": 74.107,
        "meta_ra_of_asc_node": 115.842,
        "meta_arg_of_pericenter": 215.933,
        "meta_mean_anomaly": 141.9102,
        "meta_ephemeris_type": 0,
        "meta_classification_type": "U",
        "meta_norad_cat_id": 33917,
        "meta_element_set_no": 999,
        "meta_rev_at_epoch": 83788,
        "meta_bstar": 0.00069367748,
        "meta_mean_motion_dot": 8.63e-06,
        "meta_mean_motion_ddot": 0,
        "tle_line1": "1 33917U 93036DW  25350.73535556  .00000863  00000+0  69368-3 0  9999",
        "tle_line2": "2 33917  74.1070 115.8420 0331314 215.9330 141.9102 13.69367338837884"
      },
      "geometry": {
        "type": "Point",
        "coordinates": [
          -71.29790547340542,
          21.269124142136743
        ]
      }
    },
    {
      "type": "Feature",
      "properties": {
        "norad_id": 33920,
        "name": "COSMOS 2251 DEB",
        "group": "cosmos-2251-debris",
        "lat": -49.02702513839685,
        "lon": 129.15073856637596,
        "alt_km": 693.146390712981,
        "timestamp": "2025-12-17T04:57:44.753990+00:00",
        "meta_object_name": "COSMOS 2251 DEB",
        "meta_object_id": "1993-036DZ",
        "meta_epoch": "2025-12-16T03:12:15.143040",
        "meta_mean_motion": 14.58334795,
        "meta_eccentricity": 0.00380587,
        "meta_inclination": 74.0619,
        "meta_ra_of_asc_node": 291.9782,
        "meta_arg_of_pericenter": 297.9916,
        "meta_mean_anomaly": 61.74,
        "meta_ephemeris_type": 0,
        "meta_classification_type": "U",
        "meta_norad_cat_id": 33920,
        "meta_element_set_no": 999,
        "meta_rev_at_epoch": 88164,
        "meta_bstar": 0.0013009676,
        "meta_mean_motion_dot": 6.056e-05,
        "meta_mean_motion_ddot": 0,
        "tle_line1": "1 33920U 93036DZ  25350.13350860  .00006056  00000+0  13010-2 0  9992",
        "tle_line2": "2 33920  74.0619 291.9782 0038058 297.9916  61.7400 14.58334795881645"
      },
      "geometry": {
        "type": "Point",
        "coordinates": [
          129.15073856637596,
          -49.02702513839685
        ]
      }
    },
    {
      "type": "Feature",
      "properties": {
        "norad_id": 33922,
        "name": "COSMOS 2251 DEB",
        "group": "cosmos-2251-debris",
        "lat": -49.782092288470736,
        "lon": -20.840262078957792,
        "alt_km": 717.9567031429015,
        "timestamp": "2025-12-17T04:57:44.753999+00:00",
        "meta_object_name": "COSMOS 2251 DEB",
        "meta_object_id": "1993-036EB",
        "meta_epoch": "2025-12-16T20:09:37.886976",
        "meta_mean_motion": 14.49523059,
        "meta_eccentricity": 0.00232091,
        "meta_inclination": 74.0467,
        "meta_ra_of_asc_node": 140.075,
        "meta_arg_of_pericenter": 250.1793,
        "meta_mean_anomaly": 229.3974,
        "meta_ephemeris_type": 0,
        "meta_classification_type": "U",
        "meta_norad_cat_id": 33922,
        "meta_element_set_no": 999,
        "meta_rev_at_epoch": 88637,
        "meta_bstar": 0.00039781511,
        "meta_mean_motion_dot": 1.503e-05,
        "meta_mean_motion_ddot": 0,
        "tle_line1": "1 33922U 93036EB  25350.84002184  .00001503  00000+0  39782-3 0  9992",
        "tle_line2": "2 33922  74.0467 140.0750 0023209 250.1793 229.3974 14.49523059886379"
      },
      "geometry": {
        "type": "Point",
        "coordinates": [
          -20.840262078957792,
          -49.782092288470736
        ]
      }
    }
  ]
}